CENTAURI-8              
1 62714U 25009DK  26068.72637183  .00004445  00000+0  38891-3 0  9993
2 62714  97.7096 150.1876 0003020 109.5881 250.5667 14.97228330 62597
STARLINK-34370          
1 64309U 25123U   26068.72965821  .00007563  00000+0  64090-3 0  9999
2 64309  70.0016 194.3836 0003733 273.6723  86.4009 14.98334393 41625
